     3.02           N: GNSS NAV DATA    M: Mixed            RINEX VERSION / TYPE
CONVBIN 2.4.2                           20180305 083014 UTC PGM / RUN BY / DATE 
log: G0208A18.039                                           COMMENT             
format: LEX Receiver                                        COMMENT             
                                                            END OF HEADER       
G 1 2018  2  8 12  0  0 -.277063809335E-04 -.204636307899E-11  .000000000000E+00
      .480000000000E+02 -.298125000000E+02  .436339603867E-08 -.101937660513E+01
     -.151060521603E-05  .730962143280E-02  .821240246296E-05  .515367605209E+04
      .388800000000E+06  .149011611938E-06 -.744711510646E+00  .186264514923E-07
      .970164981597E+00  .225656250000E+03  .614061256470E+00 -.797176062726E-08
      .253224833545E-09  .100000000000E+01  .198700000000E+04  .100000000000E+01
      .240000000000E+01  .000000000000E+00  .558793544769E-08  .480000000000E+02
     -.151770240000E+10  .400000000000E+01
G30 2018  2  8 12  0  0  .105432700366E-03 -.341060513165E-11  .000000000000E+00
      .800000000000E+02  .664375000000E+02  .475698386176E-08 -.153897168213E+01
      .334717333317E-05  .306603009813E-02  .737048685551E-05  .515357398605E+04
      .388800000000E+06 -.875443220139E-07  .244571932738E+01 -.298023223877E-07
      .945221989890E+00  .230218750000E+03 -.311554293802E+01 -.813962476233E-08
     -.482162941165E-10  .100000000000E+01  .198700000000E+04  .000000000000E+00
      .240000000000E+01  .000000000000E+00  .372529029846E-08  .800000000000E+02
     -.151770240000E+10  .400000000000E+01
G 1 2018  2  8 12  0  0 -.115285627544E-03  .186446413863E-10  .000000000000E+00
      .205000000000E+03 -.605937500000E+02  .290333522128E-08  .533891622409E+00
     -.208616256714E-05  .753729901044E-01  .569224357605E-05  .649363565445E+04
      .388800000000E+06 -.990927219391E-06  .381304772657E+00 -.363215804100E-06
      .716115931412E+00  .915625000000E+01 -.156443289501E+01 -.311834417727E-08
      .385730352932E-09  .200000000000E+01  .198700000000E+04  .100000000000E+01
      .340000000000E+01  .000000000000E+00 -.558793544769E-08  .973000000000E+03
     -.151770240000E+10  .400000000000E+01
G 1 2018  2  8 12  0  0 -.277063809335E-04 -.204636307899E-11  .000000000000E+00
      .480000000000E+02 -.298125000000E+02  .436339603867E-08 -.101937660513E+01
     -.151060521603E-05  .730962143280E-02  .821240246296E-05  .515367605209E+04
      .388800000000E+06  .149011611938E-06 -.744711510646E+00  .186264514923E-07
      .970164981597E+00  .225656250000E+03  .614061256470E+00 -.797176062726E-08
      .253224833545E-09  .100000000000E+01  .198700000000E+04  .100000000000E+01
      .240000000000E+01  .000000000000E+00  .558793544769E-08  .480000000000E+02
     -.151770240000E+10  .400000000000E+01
G 1 2018  2  8 12  0  0 -.115285627544E-03  .186446413863E-10  .000000000000E+00
      .205000000000E+03 -.605937500000E+02  .290333522128E-08  .533891622409E+00
     -.208616256714E-05  .753729901044E-01  .569224357605E-05  .649363565445E+04
      .388800000000E+06 -.990927219391E-06  .381304772657E+00 -.363215804100E-06
      .716115931412E+00  .915625000000E+01 -.156443289501E+01 -.311834417727E-08
      .385730352932E-09  .200000000000E+01  .198700000000E+04  .100000000000E+01
      .340000000000E+01  .000000000000E+00 -.558793544769E-08  .973000000000E+03
     -.151770240000E+10  .400000000000E+01
G23 2018  2  8 11 59 44 -.218994449824E-03  .113686837722E-12  .000000000000E+00
      .000000000000E+00  .450000000000E+01  .506735393277E-08 -.187320174934E+00
      .238418579102E-06  .119637621101E-01  .824965536594E-05  .515359884453E+04
      .388784000000E+06 -.260770320892E-07  .133157068465E+01  .152736902237E-06
      .943457365438E+00  .209437500000E+03 -.239796827102E+01 -.846320966951E-08
     -.285369029623E-09  .100000000000E+01  .198700000000E+04  .000000000000E+00
      .240000000000E+01  .000000000000E+00 -.200234353542E-07  .000000000000E+00
     -.151770240000E+10  .400000000000E+01
G 1 2018  2  8 12  0  0 -.277063809335E-04 -.204636307899E-11  .000000000000E+00
      .480000000000E+02 -.298125000000E+02  .436339603867E-08 -.101937660513E+01
     -.151060521603E-05  .730962143280E-02  .821240246296E-05  .515367605209E+04
      .388800000000E+06  .149011611938E-06 -.744711510646E+00  .186264514923E-07
      .970164981597E+00  .225656250000E+03  .614061256470E+00 -.797176062726E-08
      .253224833545E-09  .100000000000E+01  .198700000000E+04  .100000000000E+01
      .240000000000E+01  .000000000000E+00  .558793544769E-08  .480000000000E+02
     -.151770240000E+10  .400000000000E+01
G 1 2018  2  8 12  0  0 -.115285627544E-03  .186446413863E-10  .000000000000E+00
      .205000000000E+03 -.605937500000E+02  .290333522128E-08  .533891622409E+00
     -.208616256714E-05  .753729901044E-01  .569224357605E-05  .649363565445E+04
      .388800000000E+06 -.990927219391E-06  .381304772657E+00 -.363215804100E-06
      .716115931412E+00  .915625000000E+01 -.156443289501E+01 -.311834417727E-08
      .385730352932E-09  .200000000000E+01  .198700000000E+04  .100000000000E+01
      .340000000000E+01  .000000000000E+00 -.558793544769E-08  .973000000000E+03
     -.151770240000E+10  .400000000000E+01
G 1 2018  2  8 12  0  0 -.277063809335E-04 -.204636307899E-11  .000000000000E+00
      .480000000000E+02 -.298125000000E+02  .436339603867E-08 -.101937660513E+01
     -.151060521603E-05  .730962143280E-02  .821240246296E-05  .515367605209E+04
      .388800000000E+06  .149011611938E-06 -.744711510646E+00  .186264514923E-07
      .970164981597E+00  .225656250000E+03  .614061256470E+00 -.797176062726E-08
      .253224833545E-09  .100000000000E+01  .198700000000E+04  .100000000000E+01
      .240000000000E+01  .000000000000E+00  .558793544769E-08  .480000000000E+02
     -.151770240000E+10  .400000000000E+01
G 1 2018  2  8 12  0  0 -.115285627544E-03  .186446413863E-10  .000000000000E+00
      .205000000000E+03 -.605937500000E+02  .290333522128E-08  .533891622409E+00
     -.208616256714E-05  .753729901044E-01  .569224357605E-05  .649363565445E+04
      .388800000000E+06 -.990927219391E-06  .381304772657E+00 -.363215804100E-06
      .716115931412E+00  .915625000000E+01 -.156443289501E+01 -.311834417727E-08
      .385730352932E-09  .200000000000E+01  .198700000000E+04  .100000000000E+01
      .340000000000E+01  .000000000000E+00 -.558793544769E-08  .973000000000E+03
     -.151770240000E+10  .400000000000E+01
G 1 2018  2  8 12  0  0 -.277063809335E-04 -.204636307899E-11  .000000000000E+00
      .480000000000E+02 -.298125000000E+02  .436339603867E-08 -.101937660513E+01
     -.151060521603E-05  .730962143280E-02  .821240246296E-05  .515367605209E+04
      .388800000000E+06  .149011611938E-06 -.744711510646E+00  .186264514923E-07
      .970164981597E+00  .225656250000E+03  .614061256470E+00 -.797176062726E-08
      .253224833545E-09  .100000000000E+01  .198700000000E+04  .100000000000E+01
      .240000000000E+01  .000000000000E+00  .558793544769E-08  .480000000000E+02
     -.151770240000E+10  .400000000000E+01
G 1 2018  2  8 12  0  0 -.115285627544E-03  .186446413863E-10  .000000000000E+00
      .205000000000E+03 -.605937500000E+02  .290333522128E-08  .533891622409E+00
     -.208616256714E-05  .753729901044E-01  .569224357605E-05  .649363565445E+04
      .388800000000E+06 -.990927219391E-06  .381304772657E+00 -.363215804100E-06
      .716115931412E+00  .915625000000E+01 -.156443289501E+01 -.311834417727E-08
      .385730352932E-09  .200000000000E+01  .198700000000E+04  .100000000000E+01
      .340000000000E+01  .000000000000E+00 -.558793544769E-08  .973000000000E+03
     -.151770240000E+10  .400000000000E+01
G 1 2018  2  8 12  0  0 -.277063809335E-04 -.204636307899E-11  .000000000000E+00
      .480000000000E+02 -.298125000000E+02  .436339603867E-08 -.101937660513E+01
     -.151060521603E-05  .730962143280E-02  .821240246296E-05  .515367605209E+04
      .388800000000E+06  .149011611938E-06 -.744711510646E+00  .186264514923E-07
      .970164981597E+00  .225656250000E+03  .614061256470E+00 -.797176062726E-08
      .253224833545E-09  .100000000000E+01  .198700000000E+04  .100000000000E+01
      .240000000000E+01  .000000000000E+00  .558793544769E-08  .480000000000E+02
     -.151770240000E+10  .400000000000E+01
G 1 2018  2  8 12  0  0 -.115285627544E-03  .186446413863E-10  .000000000000E+00
      .205000000000E+03 -.605937500000E+02  .290333522128E-08  .533891622409E+00
     -.208616256714E-05  .753729901044E-01  .569224357605E-05  .649363565445E+04
      .388800000000E+06 -.990927219391E-06  .381304772657E+00 -.363215804100E-06
      .716115931412E+00  .915625000000E+01 -.156443289501E+01 -.311834417727E-08
      .385730352932E-09  .200000000000E+01  .198700000000E+04  .100000000000E+01
      .340000000000E+01  .000000000000E+00 -.558793544769E-08  .973000000000E+03
     -.151770240000E+10  .400000000000E+01
G 1 2018  2  8 12  0  0 -.277063809335E-04 -.204636307899E-11  .000000000000E+00
      .480000000000E+02 -.298125000000E+02  .436339603867E-08 -.101937660513E+01
     -.151060521603E-05  .730962143280E-02  .821240246296E-05  .515367605209E+04
      .388800000000E+06  .149011611938E-06 -.744711510646E+00  .186264514923E-07
      .970164981597E+00  .225656250000E+03  .614061256470E+00 -.797176062726E-08
      .253224833545E-09  .100000000000E+01  .198700000000E+04  .100000000000E+01
      .240000000000E+01  .000000000000E+00  .558793544769E-08  .480000000000E+02
     -.151770240000E+10  .400000000000E+01
